{
  "type": "FeatureCollection",
  "features": [
    {
      "type": "Feature",
      "properties": {
        "norad_id": 41581,
        "name": "INTELSAT 31 (IS-31)",
        "group": "intelsat",
        "lat": -0.014989115014155214,
        "lon": 152.4693690046332,
        "alt_km": 35783.02829772938,
        "timestamp": "2025-12-06T11:28:10.697171+00:00",
        "meta_object_name": "INTELSAT 31 (IS-31)",
        "meta_object_id": "2016-035A",
        "meta_epoch": "2025-12-05T21:48:17.669376",
        "meta_mean_motion": 1.00270095,
        "meta_eccentricity": 0.00020973,
        "meta_inclination": 0.0181,
        "meta_ra_of_asc_node": 271.3649,
        "meta_arg_of_pericenter": 307.1586,
        "meta_mean_anomaly": 88.4513,
        "meta_ephemeris_type": 0,
        "meta_classification_type": "U",
        "meta_norad_cat_id": 41581,
        "meta_element_set_no": 999,
        "meta_rev_at_epoch": 3474,
        "meta_bstar": 0,
        "meta_mean_motion_dot": -1.41e-06,
        "meta_mean_motion_ddot": 0,
        "tle_line1": "1 41581U 16035A   25339.90853784 -.00000141  00000+0  00000+0 0  9995",
        "tle_line2": "2 41581   0.0181 271.3649 0002097 307.1586  88.4513  1.00270095 34742"
      },
      "geometry": {
        "type": "Point",
        "coordinates": [
          152.4693690046332,
          -0.014989115014155214
        ]
      }
    },
    {
      "type": "Feature",
      "properties": {
        "norad_id": 41747,
        "name": "INTELSAT 36 (IS-36)",
        "group": "intelsat",
        "lat": -0.018902949209778953,
        "lon": -43.925864659480425,
        "alt_km": 35774.93351488575,
        "timestamp": "2025-12-06T11:28:10.697182+00:00",
        "meta_object_name": "INTELSAT 36 (IS-36)",
        "meta_object_id": "2016-053A",
        "meta_epoch": "2025-12-05T21:26:38.561568",
        "meta_mean_motion": 1.00280112,
        "meta_eccentricity": 0.00021281,
        "meta_inclination": 0.0114,
        "meta_ra_of_asc_node": 359.9271,
        "meta_arg_of_pericenter": 305.4208,
        "meta_mean_anomaly": 159.7561,
        "meta_ephemeris_type": 0,
        "meta_classification_type": "U",
        "meta_norad_cat_id": 41747,
        "meta_element_set_no": 999,
        "meta_rev_at_epoch": 3401,
        "meta_bstar": 0,
        "meta_mean_motion_dot": -1.7e-07,
        "meta_mean_motion_ddot": 0,
        "tle_line1": "1 41747U 16053A   25339.89350187 -.00000017  00000+0  00000+0 0  9998",
        "tle_line2": "2 41747   0.0114 359.9271 0002128 305.4208 159.7561  1.00280112 34019"
      },
      "geometry": {
        "type": "Point",
        "coordinates": [
          -43.925864659480425,
          -0.018902949209778953
        ]
      }
    },
    {
      "type": "Feature",
      "properties": {
        "norad_id": 41945,
        "name": "INTELSAT 32E (IS-32E)",
        "group": "intelsat",
        "lat": 0.001251242876829554,
        "lon": -155.63381082762925,
        "alt_km": 35787.45133361523,
        "timestamp": "2025-12-06T11:28:10.697194+00:00",
        "meta_object_name": "INTELSAT 32E (IS-32E)",
        "meta_object_id": "2017-007B",
        "meta_epoch": "2025-12-05T22:03:08.746272",
        "meta_mean_motion": 1.00270461,
        "meta_eccentricity": 3.273e-05,
        "meta_inclination": 0.0317,
        "meta_ra_of_asc_node": 69.9778,
        "meta_arg_of_pericenter": 267.6371,
        "meta_mean_anomaly": 24.9596,
        "meta_ephemeris_type": 0,
        "meta_classification_type": "U",
        "meta_norad_cat_id": 41945,
        "meta_element_set_no": 999,
        "meta_rev_at_epoch": 3228,
        "meta_bstar": 0,
        "meta_mean_motion_dot": -2.6e-06,
        "meta_mean_motion_ddot": 0,
        "tle_line1": "1 41945U 17007B   25339.91885123 -.00000260  00000+0  00000+0 0  9994",
        "tle_line2": "2 41945   0.0317  69.9778 0000327 267.6371  24.9596  1.00270461 32287"
      },
      "geometry": {
        "type": "Point",
        "coordinates": [
          -155.63381082762925,
          0.001251242876829554
        ]
      }
    },
    {
      "type": "Feature",
      "properties": {
        "norad_id": 42818,
        "name": "INTELSAT 35E (IS-35E)",
        "group": "intelsat",
        "lat": -0.0311017956450714,
        "lon": -146.95550175406072,
        "alt_km": 35779.50785057034,
        "timestamp": "2025-12-06T11:28:10.697206+00:00",
        "meta_object_name": "INTELSAT 35E (IS-35E)",
        "meta_object_id": "2017-041A",
        "meta_epoch": "2025-12-05T22:05:31.019424",
        "meta_mean_motion": 1.00270215,
        "meta_eccentricity": 0.00024242,
        "meta_inclination": 0.0172,
        "meta_ra_of_asc_node": 352.0162,
        "meta_arg_of_pericenter": 267.5985,
        "meta_mean_anomaly": 112.2507,
        "meta_ephemeris_type": 0,
        "meta_classification_type": "U",
        "meta_norad_cat_id": 42818,
        "meta_element_set_no": 999,
        "meta_rev_at_epoch": 3087,
        "meta_bstar": 0,
        "meta_mean_motion_dot": -2.29e-06,
        "meta_mean_motion_ddot": 0,
        "tle_line1": "1 42818U 17041A   25339.92049791 -.00000229  00000+0  00000+0 0  9991",
        "tle_line2": "2 42818   0.0172 352.0162 0002424 267.5985 112.2507  1.00270215 30872"
      },
      "geometry": {
        "type": "Point",
        "coordinates": [
          -146.95550175406072,
          -0.0311017956450714
        ]
      }
    },
    {
      "type": "Feature",
      "properties": {
        "norad_id": 42950,
        "name": "INTELSAT 37E (IS-37E)",
        "group": "intelsat",
        "lat": -0.015303995300587257,
        "lon": -130.46178087019968,
        "alt_km": 35772.64159335382,
        "timestamp": "2025-12-06T11:28:10.697217+00:00",
        "meta_object_name": "INTELSAT 37E (IS-37E)",
        "meta_object_id": "2017-059A",
        "meta_epoch": "2025-12-05T22:10:15.564000",
        "meta_mean_motion": 1.00270695,
        "meta_eccentricity": 0.00034995,
        "meta_inclination": 0.004,
        "meta_ra_of_asc_node": 29.8645,
        "meta_arg_of_pericenter": 221.4502,
        "meta_mean_anomaly": 138.2268,
        "meta_ephemeris_type": 0,
        "meta_classification_type": "U",
        "meta_norad_cat_id": 42950,
        "meta_element_set_no": 999,
        "meta_rev_at_epoch": 3012,
        "meta_bstar": 0,
        "meta_mean_motion_dot": -1.31e-06,
        "meta_mean_motion_ddot": 0,
        "tle_line1": "1 42950U 17059A   25339.92379125 -.00000131  00000+0  00000+0 0  9996",
        "tle_line2": "2 42950   0.0040  29.8645 0003499 221.4502 138.2268  1.00270695 30127"
      },
      "geometry": {
        "type": "Point",
        "coordinates": [
          -130.46178087019968,
          -0.015303995300587257
        ]
      }
    },
    {
      "type": "Feature",
      "properties": {
        "norad_id": 43632,
        "name": "AZERSPACE 2 (IS-38)",
        "group": "intelsat",
        "lat": -0.015010008153272759,
        "lon": -67.32609420053588,
        "alt_km": 35780.78096115643,
        "timestamp": "2025-12-06T11:28:10.697229+00:00",
        "meta_object_name": "AZERSPACE 2 (IS-38)",
        "meta_object_id": "2018-074A",
        "meta_epoch": "2025-12-05T20:13:38.707968",
        "meta_mean_motion": 1.00270126,
        "meta_eccentricity": 0.00016335,
        "meta_inclination": 0.009,
        "meta_ra_of_asc_node": 310.2311,
        "meta_arg_of_pericenter": 307.7534,
        "meta_mean_anomaly": 165.4349,
        "meta_ephemeris_type": 0,
        "meta_classification_type": "U",
        "meta_norad_cat_id": 43632,
        "meta_element_set_no": 999,
        "meta_rev_at_epoch": 2650,
        "meta_bstar": 0,
        "meta_mean_motion_dot": 1.46e-06,
        "meta_mean_motion_ddot": 0,
        "tle_line1": "1 43632U 18074A   25339.84280912  .00000146  00000+0  00000+0 0  9993",
        "tle_line2": "2 43632   0.0090 310.2311 0001633 307.7534 165.4349  1.00270126 26506"
      },
      "geometry": {
        "type": "Point",
        "coordinates": [
          -67.32609420053588,
          -0.015010008153272759
        ]
      }
    },
    {
      "type": "Feature",
      "properties": {
        "norad_id": 43633,
        "name": "HORIZONS-3E",
        "group": "intelsat",
        "lat": 0.014783758481870067,
        "lon": 56.57673910828414,
        "alt_km": 35790.61974504541,
        "timestamp": "2025-12-06T11:28:10.697241+00:00",
        "meta_object_name": "HORIZONS-3E",
        "meta_object_id": "2018-074B",
        "meta_epoch": "2025-12-05T21:20:57.787872",
        "meta_mean_motion": 1.00268545,
        "meta_eccentricity": 0.00011405,
        "meta_inclination": 0.0401,
        "meta_ra_of_asc_node": 192.2057,
        "meta_arg_of_pericenter": 85.4441,
        "meta_mean_anomaly": 286.5534,
        "meta_ephemeris_type": 0,
        "meta_classification_type": "U",
        "meta_norad_cat_id": 43633,
        "meta_element_set_no": 999,
        "meta_rev_at_epoch": 2640,
        "meta_bstar": 0,
        "meta_mean_motion_dot": -2.1e-07,
        "meta_mean_motion_ddot": 0,
        "tle_line1": "1 43633U 18074B   25339.88955773 -.00000021  00000+0  00000+0 0  9995",
        "tle_line2": "2 43633   0.0401 192.2057 0001140  85.4441 286.5534  1.00268545 26400"
      },
      "geometry": {
        "type": "Point",
        "coordinates": [
          56.57673910828414,
          0.014783758481870067
        ]
      }
    }
  ]
}